IRIDIUM 144             
1 43249U 18030A   24322.66355885  .00000474  00000+0  16221-3 0  9992
2 43249  86.3999 171.3949 0002087  79.8284 280.3147 14.34217141347521
IRIDIUM 149             
1 43250U 18030B   24321.13499312  .00000439  00000+0  14975-3 0  9994
2 43250  86.3999 172.0065 0001873  84.0122 276.1287 14.34219209347302
IRIDIUM 157             
1 43251U 18030C   24321.85169575  .00000029  00000+0  32222-5 0  9991
2 43251  86.4000 171.7477 0001968  89.0820 271.0601 14.34212983347389
IRIDIUM 140             
1 43252U 18030D   24322.84748495  .00000050  00000+0  10700-4 0  9996
2 43252  86.4000 171.3462 0002117  83.9801 276.1636 14.34214537347582
IRIDIUM 145             
1 43253U 18030E   24321.09059988  .00000582  00000+0  20067-3 0  9991
2 43253  86.4000 172.0527 0001997  74.2464 285.8952 14.34217353347268
IRIDIUM 146             
1 43254U 18030F   24322.67624626  .00000518  00000+0  17805-3 0  9999
2 43254  86.4000 171.4052 0001899  74.2985 285.8420 14.34218605347502
IRIDIUM 148             
1 43255U 18030G   24322.08639340  .00000297  00000+0  99161-4 0  9994
2 43255  86.4000 171.6857 0001759  82.4096 277.7299 14.34212103347463
IRIDIUM 142             
1 43256U 18030H   24321.14767787  .00000390  00000+0  13212-3 0  9994
2 43256  86.3999 171.9876 0001782  73.7660 286.3732 14.34219153347280
